ONEWEB-0315             
1 49101U 21075AC  25274.30797941 -.00000306  00000+0 -88560-3 0  9990
2 49101  87.8932  42.0698 0001818  86.2627 273.8709 13.12442089201218
ONEWEB-0316             
1 49102U 21075AD  25274.26823888  .00000065  00000+0  13170-3 0  9991
2 49102  87.9220  26.8826 0001780  96.2043 263.9292 13.18686376203083
ONEWEB-0317             
1 49103U 21075AE  25274.30148680 -.00000296  00000+0 -85710-3 0  9994
2 49103  87.8935  42.0863 0001899 124.4795 235.6514 13.12440694201239
ONEWEB-0318             
1 49104U 21075AF  25274.26494454  .00000139  00000+0  31944-3 0  9997
2 49104  87.9217  26.8696 0001819  93.1944 266.9396 13.18688029203046
ONEWEB-0319             
1 49105U 21075AG  25273.92731171  .00000126  00000+0  29170-3 0  9994
2 49105  87.9070  57.4377 0001987  85.8453 274.2906 13.17651330199462
ONEWEB-0323             
1 49106U 21075AH  25274.29177067 -.00000023  00000+0 -99302-4 0  9997
2 49106  87.8935  42.0747 0002200  83.9021 276.2359 13.12441277200595
ONEWEB-0329             
1 49107U 21075AJ  25274.16357764  .00000060  00000+0  12240-3 0  9992
2 49107  87.9068  57.3941 0001834  93.7194 266.4147 13.17649906199475
ONEWEB-0330             
1 49108U 21075AK  25274.16441359  .00000047  00000+0  87196-4 0  9995
2 49108  87.9072  57.3982 0001909  98.4307 261.7041 13.17649540199517
ONEWEB-0292             
1 49186U 21083A   25274.23791644 -.00000101  00000+0 -31107-3 0  9996
2 49186  87.9047  11.7153 0001845  95.3961 264.7379 13.13470167196933
ONEWEB-0303             
1 49187U 21083B   25274.26165158  .00000092  00000+0  19959-3 0  9993
2 49187  87.9220  26.8706 0001845  94.1668 265.9675 13.18685788195853
ONEWEB-0306             
1 49188U 21083C   25274.02412750  .00000093  00000+0  20290-3 0  9992
2 49188  87.9217  26.9033 0001723 106.8366 253.2955 13.18686366195860
ONEWEB-0307             
1 49189U 21083D   25274.00345505  .00002219  00000+0  60382-2 0  9991
2 49189  87.9038  11.7586 0001932 112.4070 247.7264 13.13478285196905
ONEWEB-0320             
1 49190U 21083E   25274.25830341  .00000085  00000+0  18301-3 0  9991
2 49190  87.9218  26.8851 0001847  98.7314 261.4027 13.18698288195856
ONEWEB-0321             
1 49191U 21083F   25274.18845123  .00000077  00000+0  15722-3 0  9993
2 49191  87.9244 326.0789 0001840 107.6125 252.5209 13.20773709202648
ONEWEB-0322             
1 49192U 21083G   25274.30393882 -.00000045  00000+0 -15734-3 0  9998
2 49192  87.9043  11.6962 0001457 117.0653 243.0625 13.13468307196939
ONEWEB-0324             
1 49193U 21083H   25274.24514999  .00000056  00000+0  11000-3 0  9998
2 49193  87.9216  26.8670 0001884 101.5619 258.5724 13.18687484195877
ONEWEB-0325             
1 49194U 21083J   25274.02083095  .00000075  00000+0  15723-3 0  9990
2 49194  87.9218  26.9293 0001673 101.4851 258.6469 13.18685814195855
