[{"OBJECT_NAME":"ONEWEB-0315","OBJECT_ID":"2021-075AC","EPOCH":"2025-10-01T07:23:29.421024","MEAN_MOTION":13.12442089,"ECCENTRICITY":0.00018181,"INCLINATION":87.8932,"RA_OF_ASC_NODE":42.0698,"ARG_OF_PERICENTER":86.2627,"MEAN_ANOMALY":273.8709,"EPHEMERIS_TYPE":0,"CLASSIFICATION_TYPE":"U","NORAD_CAT_ID":49101,"ELEMENT_SET_NO":999,"REV_AT_EPOCH":20121,"BSTAR":-0.00088560264,"MEAN_MOTION_DOT":-3.06e-6,"MEAN_MOTION_DDOT":0},{"OBJECT_NAME":"ONEWEB-0316","OBJECT_ID":"2021-075AD","EPOCH":"2025-10-01T06:26:15.839232","MEAN_MOTION":13.18686376,"ECCENTRICITY":0.00017808,"INCLINATION":87.922,"RA_OF_ASC_NODE":26.8826,"ARG_OF_PERICENTER":96.2043,"MEAN_ANOMALY":263.9292,"EPHEMERIS_TYPE":0,"CLASSIFICATION_TYPE":"U","NORAD_CAT_ID":49102,"ELEMENT_SET_NO":999,"REV_AT_EPOCH":20308,"BSTAR":0.00013170037,"MEAN_MOTION_DOT":6.5e-7,"MEAN_MOTION_DDOT":0},{"OBJECT_NAME":"ONEWEB-0317","OBJECT_ID":"2021-075AE","EPOCH":"2025-10-01T07:14:08.459520","MEAN_MOTION":13.12440694,"ECCENTRICITY":0.00018997,"INCLINATION":87.8935,"RA_OF_ASC_NODE":42.0863,"ARG_OF_PERICENTER":124.4795,"MEAN_ANOMALY":235.6514,"EPHEMERIS_TYPE":0,"CLASSIFICATION_TYPE":"U","NORAD_CAT_ID":49103,"ELEMENT_SET_NO":999,"REV_AT_EPOCH":20123,"BSTAR":-0.00085709821,"MEAN_MOTION_DOT":-2.96e-6,"MEAN_MOTION_DDOT":0},{"OBJECT_NAME":"ONEWEB-0318","OBJECT_ID":"2021-075AF","EPOCH":"2025-10-01T06:21:31.208256","MEAN_MOTION":13.18688029,"ECCENTRICITY":0.00018194,"INCLINATION":87.9217,"RA_OF_ASC_NODE":26.8696,"ARG_OF_PERICENTER":93.1944,"MEAN_ANOMALY":266.9396,"EPHEMERIS_TYPE":0,"CLASSIFICATION_TYPE":"U","NORAD_CAT_ID":49104,"ELEMENT_SET_NO":999,"REV_AT_EPOCH":20304,"BSTAR":0.00031944271,"MEAN_MOTION_DOT":1.39e-6,"MEAN_MOTION_DDOT":0},{"OBJECT_NAME":"ONEWEB-0319","OBJECT_ID":"2021-075AG","EPOCH":"2025-09-30T22:15:19.731744","MEAN_MOTION":13.1765133,"ECCENTRICITY":0.00019872,"INCLINATION":87.907,"RA_OF_ASC_NODE":57.4377,"ARG_OF_PERICENTER":85.8453,"MEAN_ANOMALY":274.2906,"EPHEMERIS_TYPE":0,"CLASSIFICATION_TYPE":"U","NORAD_CAT_ID":49105,"ELEMENT_SET_NO":999,"REV_AT_EPOCH":19946,"BSTAR":0.00029169521,"MEAN_MOTION_DOT":1.26e-6,"MEAN_MOTION_DDOT":0},{"OBJECT_NAME":"ONEWEB-0323","OBJECT_ID":"2021-075AH","EPOCH":"2025-10-01T07:00:08.985888","MEAN_MOTION":13.12441277,"ECCENTRICITY":0.00022,"INCLINATION":87.8935,"RA_OF_ASC_NODE":42.0747,"ARG_OF_PERICENTER":83.9021,"MEAN_ANOMALY":276.2359,"EPHEMERIS_TYPE":0,"CLASSIFICATION_TYPE":"U","NORAD_CAT_ID":49106,"ELEMENT_SET_NO":999,"REV_AT_EPOCH":20059,"BSTAR":-9.9301905e-5,"MEAN_MOTION_DOT":-2.3e-7,"MEAN_MOTION_DDOT":0},{"OBJECT_NAME":"ONEWEB-0329","OBJECT_ID":"2021-075AJ","EPOCH":"2025-10-01T03:55:33.108096","MEAN_MOTION":13.17649906,"ECCENTRICITY":0.00018342,"INCLINATION":87.9068,"RA_OF_ASC_NODE":57.3941,"ARG_OF_PERICENTER":93.7194,"MEAN_ANOMALY":266.4147,"EPHEMERIS_TYPE":0,"CLASSIFICATION_TYPE":"U","NORAD_CAT_ID":49107,"ELEMENT_SET_NO":999,"REV_AT_EPOCH":19947,"BSTAR":0.00012239685,"MEAN_MOTION_DOT":6.0e-7,"MEAN_MOTION_DDOT":0},{"OBJECT_NAME":"ONEWEB-0330","OBJECT_ID":"2021-075AK","EPOCH":"2025-10-01T03:56:45.334176","MEAN_MOTION":13.1764954,"ECCENTRICITY":0.00019091,"INCLINATION":87.9072,"RA_OF_ASC_NODE":57.3982,"ARG_OF_PERICENTER":98.4307,"MEAN_ANOMALY":261.7041,"EPHEMERIS_TYPE":0,"CLASSIFICATION_TYPE":"U","NORAD_CAT_ID":49108,"ELEMENT_SET_NO":999,"REV_AT_EPOCH":19951,"BSTAR":8.7195859e-5,"MEAN_MOTION_DOT":4.7e-7,"MEAN_MOTION_DDOT":0},{"OBJECT_NAME":"ONEWEB-0292","OBJECT_ID":"2021-083A","EPOCH":"2025-10-01T05:42:35.980416","MEAN_MOTION":13.13470167,"ECCENTRICITY":0.00018458,"INCLINATION":87.9047,"RA_OF_ASC_NODE":11.7153,"ARG_OF_PERICENTER":95.3961,"MEAN_ANOMALY":264.7379,"EPHEMERIS_TYPE":0,"CLASSIFICATION_TYPE":"U","NORAD_CAT_ID":49186,"ELEMENT_SET_NO":999,"REV_AT_EPOCH":19693,"BSTAR":-0.0003110743,"MEAN_MOTION_DOT":-1.01e-6,"MEAN_MOTION_DDOT":0},{"OBJECT_NAME":"ONEWEB-0303","OBJECT_ID":"2021-083B","EPOCH":"2025-10-01T06:16:46.696512","MEAN_MOTION":13.18685788,"ECCENTRICITY":0.00018456,"INCLINATION":87.922,"RA_OF_ASC_NODE":26.8706,"ARG_OF_PERICENTER":94.1668,"MEAN_ANOMALY":265.9675,"EPHEMERIS_TYPE":0,"CLASSIFICATION_TYPE":"U","NORAD_CAT_ID":49187,"ELEMENT_SET_NO":999,"REV_AT_EPOCH":19585,"BSTAR":0.00019958984,"MEAN_MOTION_DOT":9.2e-7,"MEAN_MOTION_DDOT":0},{"OBJECT_NAME":"ONEWEB-0306","OBJECT_ID":"2021-083C","EPOCH":"2025-10-01T00:34:44.616000","MEAN_MOTION":13.18686366,"ECCENTRICITY":0.00017238,"INCLINATION":87.9217,"RA_OF_ASC_NODE":26.9033,"ARG_OF_PERICENTER":106.8366,"MEAN_ANOMALY":253.2955,"EPHEMERIS_TYPE":0,"CLASSIFICATION_TYPE":"U","NORAD_CAT_ID":49188,"ELEMENT_SET_NO":999,"REV_AT_EPOCH":19586,"BSTAR":0.00020289826,"MEAN_MOTION_DOT":9.3e-7,"MEAN_MOTION_DDOT":0},{"OBJECT_NAME":"ONEWEB-0307","OBJECT_ID":"2021-083D","EPOCH":"2025-10-01T00:04:58.516320","MEAN_MOTION":13.13478285,"ECCENTRICITY":0.00019322,"INCLINATION":87.9038,"RA_OF_ASC_NODE":11.7586,"ARG_OF_PERICENTER":112.407,"MEAN_ANOMALY":247.7264,"EPHEMERIS_TYPE":0,"CLASSIFICATION_TYPE":"U","NORAD_CAT_ID":49189,"ELEMENT_SET_NO":999,"REV_AT_EPOCH":19690,"BSTAR":0.0060382355,"MEAN_MOTION_DOT":2.219e-5,"MEAN_MOTION_DDOT":0},{"OBJECT_NAME":"ONEWEB-0320","OBJECT_ID":"2021-083E","EPOCH":"2025-10-01T06:11:57.414624","MEAN_MOTION":13.18698288,"ECCENTRICITY":0.00018471,"INCLINATION":87.9218,"RA_OF_ASC_NODE":26.8851,"ARG_OF_PERICENTER":98.7314,"MEAN_ANOMALY":261.4027,"EPHEMERIS_TYPE":0,"CLASSIFICATION_TYPE":"U","NORAD_CAT_ID":49190,"ELEMENT_SET_NO":999,"REV_AT_EPOCH":19585,"BSTAR":0.00018301307,"MEAN_MOTION_DOT":8.5e-7,"MEAN_MOTION_DDOT":0},{"OBJECT_NAME":"ONEWEB-0321","OBJECT_ID":"2021-083F","EPOCH":"2025-10-01T04:31:22.186272","MEAN_MOTION":13.20773709,"ECCENTRICITY":0.00018405,"INCLINATION":87.9244,"RA_OF_ASC_NODE":326.0789,"ARG_OF_PERICENTER":107.6125,"MEAN_ANOMALY":252.5209,"EPHEMERIS_TYPE":0,"CLASSIFICATION_TYPE":"U","NORAD_CAT_ID":49191,"ELEMENT_SET_NO":999,"REV_AT_EPOCH":20264,"BSTAR":0.0001572209,"MEAN_MOTION_DOT":7.7e-7,"MEAN_MOTION_DDOT":0},{"OBJECT_NAME":"ONEWEB-0322","OBJECT_ID":"2021-083G","EPOCH":"2025-10-01T07:17:40.314048","MEAN_MOTION":13.13468307,"ECCENTRICITY":0.00014571,"INCLINATION":87.9043,"RA_OF_ASC_NODE":11.6962,"ARG_OF_PERICENTER":117.0653,"MEAN_ANOMALY":243.0625,"EPHEMERIS_TYPE":0,"CLASSIFICATION_TYPE":"U","NORAD_CAT_ID":49192,"ELEMENT_SET_NO":999,"REV_AT_EPOCH":19693,"BSTAR":-0.0001573433,"MEAN_MOTION_DOT":-4.5e-7,"MEAN_MOTION_DDOT":0},{"OBJECT_NAME":"ONEWEB-0324","OBJECT_ID":"2021-083H","EPOCH":"2025-10-01T05:53:00.959136","MEAN_MOTION":13.18687484,"ECCENTRICITY":0.00018842,"INCLINATION":87.9216,"RA_OF_ASC_NODE":26.867,"ARG_OF_PERICENTER":101.5619,"MEAN_ANOMALY":258.5724,"EPHEMERIS_TYPE":0,"CLASSIFICATION_TYPE":"U","NORAD_CAT_ID":49193,"ELEMENT_SET_NO":999,"REV_AT_EPOCH":19587,"BSTAR":0.00011000093,"MEAN_MOTION_DOT":5.6e-7,"MEAN_MOTION_DDOT":0},{"OBJECT_NAME":"ONEWEB-0325","OBJECT_ID":"2021-083J","EPOCH":"2025-10-01T00:29:59.794080","MEAN_MOTION":13.18685814,"ECCENTRICITY":0.00016731,"INCLINATION":87.9218,"RA_OF_ASC_NODE":26.9293,"ARG_OF_PERICENTER":101.4851,"MEAN_ANOMALY":258.6469,"EPHEMERIS_TYPE":0,"CLASSIFICATION_TYPE":"U","NORAD_CAT_ID":49194,"ELEMENT_SET_NO":999,"REV_AT_EPOCH":19585,"BSTAR":0.00015722638,"MEAN_MOTION_DOT":7.5e-7,"MEAN_MOTION_DDOT":0}]
